FOX-1A (AO-85)          
1 40967U 15058D   26068.92792905  .00004759  00000+0  43145-3 0  9994
2 40967  64.7749 227.3018 0128884  95.8080 265.7742 14.90358802 98773
HAWK-13B                
1 67396U 26004AK  26068.90196948  .00003406  00000+0  16977-3 0  9996
2 67396  97.4526  69.3757 0005755 335.2738  24.8219 15.18214359  8694
